XRISM                   
1 57800U 23137A   24033.77105592  .00005142  00000+0  40303-3 0  9998
2 57800  31.0027 153.3977 0009849 307.8529  52.1215 14.99435752 22250
